STARLINK-36938          
1 68124U 26044Z   26093.83043313  .00488069  00000+0  30697-2 0  9993
2 68124  97.2868  55.3011 0001371  58.2655 301.8744 15.75339664  5440
STARLINK-36839          
1 68125U 26044AA  26093.91668981 -.01933254  00000+0 -34991-1 0  9991
2 68125  97.2852  55.2485 0002271  86.6564  69.8371 15.53204709  5413
ECHOSTAR 25             
1 68126U 26045A   26093.72286226  .00000056  00000+0  00000+0 0  9994
2 68126   0.0375 280.5483 0001620 152.4872 250.3902  1.00270662   249
ICOR SV                 
1 68127U 26046A   26093.52403713  .00584600  12268-4  69972-3 0  9999
2 68127 123.0718 319.5513 0089536 234.5944 124.6746 15.99930156  3558
FIREFLY ALPHA R/B       
1 68128U 26046B   26093.55093146  .00051483  00000+0  67811-3 0  9992
2 68128 123.0922 314.7009 0017163  28.8315 331.3691 15.57804670  3513
GUOWANG GROUP 20 OBJECT*
1 68129U 26047A   26093.45001185 -.00000084  00000+0  53273-4 0  9995
2 68129  50.0057 330.4025 0001021 163.3408 196.7522 13.84283599  3031
GUOWANG GROUP 20 OBJECT*
1 68130U 26047B   26091.21157936 -.00000062  00000+0  69791-4 0  9993
2 68130  50.0054 339.2252 0000133 185.6237 174.4659 13.87767313  2711
GUOWANG GROUP 20 OBJECT*
1 68131U 26047C   26092.50577046 -.00000096  00000+0  42136-4 0  9996
2 68131  50.0019 334.0677 0000669 236.5521 123.5312 13.86320500  2907
GUOWANG GROUP 20 OBJECT*
1 68132U 26047D   26092.57516225 -.00000084  00000+0  51916-4 0  9999
2 68132  50.0067 333.7806 0000710 245.0360 115.0463 13.86594040  2909
GUOWANG GROUP 20 OBJECT*
1 68133U 26047E   26093.00475373 -.00000089  00000+0  48671-4 0  9996
2 68133  50.0078 332.0369 0000826  23.1230 336.9704 13.85521979  2976
GUOWANG GROUP 20 OBJECT*
1 68134U 26047F   26092.56694514 -.00000033  00000+0  95092-4 0  9995
2 68134  50.0093 333.7419 0000629 256.4099 103.6728 13.87190720  2909
GUOWANG GROUP 20 OBJECT*
1 68135U 26047G   26093.93995620  .00000030  00000+0  15438-3 0  9991
2 68135  50.0089 328.3860 0005205 347.4651  12.6115 13.84351793  3103
