CCSDS_OMM_VERS = 2.0
CREATION_DATE  = 
ORIGINATOR     = 

OBJECT_NAME    = STARLINK-36938
OBJECT_ID      = 2026-044Z
CENTER_NAME    = EARTH
REF_FRAME      = TEME
TIME_SYSTEM    = UTC
MEAN_ELEMENT_THEORY = SGP/SGP4

EPOCH          = 2026-04-03T19:55:49.422432
MEAN_MOTION    = 15.75339664
ECCENTRICITY   = .00013713
INCLINATION    = 97.2868
RA_OF_ASC_NODE = 55.3011
ARG_OF_PERICENTER = 58.2655
MEAN_ANOMALY   = 301.8744

EPHEMERIS_TYPE = 0
CLASSIFICATION_TYPE = U
NORAD_CAT_ID   = 68124
ELEMENT_SET_NO = 999
REV_AT_EPOCH   = 544
BSTAR          = .30697437E-2
MEAN_MOTION_DOT = .488069E-2
MEAN_MOTION_DDOT = 0

CCSDS_OMM_VERS = 2.0
CREATION_DATE  = 
ORIGINATOR     = 

OBJECT_NAME    = STARLINK-36839
OBJECT_ID      = 2026-044AA
CENTER_NAME    = EARTH
REF_FRAME      = TEME
TIME_SYSTEM    = UTC
MEAN_ELEMENT_THEORY = SGP/SGP4

EPOCH          = 2026-04-03T22:00:01.999584
MEAN_MOTION    = 15.53204709
ECCENTRICITY   = .00022717
INCLINATION    = 97.2852
RA_OF_ASC_NODE = 55.2485
ARG_OF_PERICENTER = 86.6564
MEAN_ANOMALY   = 69.8371

EPHEMERIS_TYPE = 0
CLASSIFICATION_TYPE = U
NORAD_CAT_ID   = 68125
ELEMENT_SET_NO = 999
REV_AT_EPOCH   = 541
BSTAR          = -.34991404E-1
MEAN_MOTION_DOT = -.1933254E-1
MEAN_MOTION_DDOT = 0

CCSDS_OMM_VERS = 2.0
CREATION_DATE  = 
ORIGINATOR     = 

OBJECT_NAME    = ECHOSTAR 25
OBJECT_ID      = 2026-045A
CENTER_NAME    = EARTH
REF_FRAME      = TEME
TIME_SYSTEM    = UTC
MEAN_ELEMENT_THEORY = SGP/SGP4

EPOCH          = 2026-04-03T17:20:55.299264
MEAN_MOTION    = 1.00270662
ECCENTRICITY   = .00016207
INCLINATION    = 0.0375
RA_OF_ASC_NODE = 280.5483
ARG_OF_PERICENTER = 152.4872
MEAN_ANOMALY   = 250.3902

EPHEMERIS_TYPE = 0
CLASSIFICATION_TYPE = U
NORAD_CAT_ID   = 68126
ELEMENT_SET_NO = 999
REV_AT_EPOCH   = 24
BSTAR          = 0
MEAN_MOTION_DOT = .56E-6
MEAN_MOTION_DDOT = 0

CCSDS_OMM_VERS = 2.0
CREATION_DATE  = 
ORIGINATOR     = 

OBJECT_NAME    = ICOR SV
OBJECT_ID      = 2026-046A
CENTER_NAME    = EARTH
REF_FRAME      = TEME
TIME_SYSTEM    = UTC
MEAN_ELEMENT_THEORY = SGP/SGP4

EPOCH          = 2026-04-03T12:34:36.808032
MEAN_MOTION    = 15.99930156
ECCENTRICITY   = .00895367
INCLINATION    = 123.0718
RA_OF_ASC_NODE = 319.5513
ARG_OF_PERICENTER = 234.5944
MEAN_ANOMALY   = 124.6746

EPHEMERIS_TYPE = 0
CLASSIFICATION_TYPE = U
NORAD_CAT_ID   = 68127
ELEMENT_SET_NO = 999
REV_AT_EPOCH   = 355
BSTAR          = .69972429E-3
MEAN_MOTION_DOT = .5846E-2
MEAN_MOTION_DDOT = .12267707E-4

CCSDS_OMM_VERS = 2.0
CREATION_DATE  = 
ORIGINATOR     = 

OBJECT_NAME    = FIREFLY ALPHA R/B
OBJECT_ID      = 2026-046B
CENTER_NAME    = EARTH
REF_FRAME      = TEME
TIME_SYSTEM    = UTC
MEAN_ELEMENT_THEORY = SGP/SGP4

EPOCH          = 2026-04-03T13:13:20.478144
MEAN_MOTION    = 15.57804670
ECCENTRICITY   = .00171635
INCLINATION    = 123.0922
RA_OF_ASC_NODE = 314.7009
ARG_OF_PERICENTER = 28.8315
MEAN_ANOMALY   = 331.3691

EPHEMERIS_TYPE = 0
CLASSIFICATION_TYPE = U
NORAD_CAT_ID   = 68128
ELEMENT_SET_NO = 999
REV_AT_EPOCH   = 351
BSTAR          = .6781092E-3
MEAN_MOTION_DOT = .51483E-3
MEAN_MOTION_DDOT = 0

CCSDS_OMM_VERS = 2.0
CREATION_DATE  = 
ORIGINATOR     = 

OBJECT_NAME    = GUOWANG GROUP 20 OBJECT A
OBJECT_ID      = 2026-047A
CENTER_NAME    = EARTH
REF_FRAME      = TEME
TIME_SYSTEM    = UTC
MEAN_ELEMENT_THEORY = SGP/SGP4

EPOCH          = 2026-04-03T10:48:01.023840
MEAN_MOTION    = 13.84283599
ECCENTRICITY   = .00010218
INCLINATION    = 50.0057
RA_OF_ASC_NODE = 330.4025
ARG_OF_PERICENTER = 163.3408
MEAN_ANOMALY   = 196.7522

EPHEMERIS_TYPE = 0
CLASSIFICATION_TYPE = U
NORAD_CAT_ID   = 68129
ELEMENT_SET_NO = 999
REV_AT_EPOCH   = 303
BSTAR          = .53273082E-4
MEAN_MOTION_DOT = -.84E-6
MEAN_MOTION_DDOT = 0

CCSDS_OMM_VERS = 2.0
CREATION_DATE  = 
ORIGINATOR     = 

OBJECT_NAME    = GUOWANG GROUP 20 OBJECT B
OBJECT_ID      = 2026-047B
CENTER_NAME    = EARTH
REF_FRAME      = TEME
TIME_SYSTEM    = UTC
MEAN_ELEMENT_THEORY = SGP/SGP4

EPOCH          = 2026-04-01T05:04:40.456704
MEAN_MOTION    = 13.87767313
ECCENTRICITY   = .00001339
INCLINATION    = 50.0054
RA_OF_ASC_NODE = 339.2252
ARG_OF_PERICENTER = 185.6237
MEAN_ANOMALY   = 174.4659

EPHEMERIS_TYPE = 0
CLASSIFICATION_TYPE = U
NORAD_CAT_ID   = 68130
ELEMENT_SET_NO = 999
REV_AT_EPOCH   = 271
BSTAR          = .69791497E-4
MEAN_MOTION_DOT = -.62E-6
MEAN_MOTION_DDOT = 0

CCSDS_OMM_VERS = 2.0
CREATION_DATE  = 
ORIGINATOR     = 

OBJECT_NAME    = GUOWANG GROUP 20 OBJECT C
OBJECT_ID      = 2026-047C
CENTER_NAME    = EARTH
REF_FRAME      = TEME
TIME_SYSTEM    = UTC
MEAN_ELEMENT_THEORY = SGP/SGP4

EPOCH          = 2026-04-02T12:08:18.567744
MEAN_MOTION    = 13.86320500
ECCENTRICITY   = .00006698
INCLINATION    = 50.0019
RA_OF_ASC_NODE = 334.0677
ARG_OF_PERICENTER = 236.5521
MEAN_ANOMALY   = 123.5312

EPHEMERIS_TYPE = 0
CLASSIFICATION_TYPE = U
NORAD_CAT_ID   = 68131
ELEMENT_SET_NO = 999
REV_AT_EPOCH   = 290
BSTAR          = .42135642E-4
MEAN_MOTION_DOT = -.96E-6
MEAN_MOTION_DDOT = 0

CCSDS_OMM_VERS = 2.0
CREATION_DATE  = 
ORIGINATOR     = 

OBJECT_NAME    = GUOWANG GROUP 20 OBJECT D
OBJECT_ID      = 2026-047D
CENTER_NAME    = EARTH
REF_FRAME      = TEME
TIME_SYSTEM    = UTC
MEAN_ELEMENT_THEORY = SGP/SGP4

EPOCH          = 2026-04-02T13:48:14.018400
MEAN_MOTION    = 13.86594040
ECCENTRICITY   = .00007103
INCLINATION    = 50.0067
RA_OF_ASC_NODE = 333.7806
ARG_OF_PERICENTER = 245.0360
MEAN_ANOMALY   = 115.0463

EPHEMERIS_TYPE = 0
CLASSIFICATION_TYPE = U
NORAD_CAT_ID   = 68132
ELEMENT_SET_NO = 999
REV_AT_EPOCH   = 290
BSTAR          = .51916391E-4
MEAN_MOTION_DOT = -.84E-6
MEAN_MOTION_DDOT = 0

CCSDS_OMM_VERS = 2.0
CREATION_DATE  = 
ORIGINATOR     = 

OBJECT_NAME    = GUOWANG GROUP 20 OBJECT E
OBJECT_ID      = 2026-047E
CENTER_NAME    = EARTH
REF_FRAME      = TEME
TIME_SYSTEM    = UTC
MEAN_ELEMENT_THEORY = SGP/SGP4

EPOCH          = 2026-04-03T00:06:50.722272
MEAN_MOTION    = 13.85521979
ECCENTRICITY   = .00008265
INCLINATION    = 50.0078
RA_OF_ASC_NODE = 332.0369
ARG_OF_PERICENTER = 23.1230
MEAN_ANOMALY   = 336.9704

EPHEMERIS_TYPE = 0
CLASSIFICATION_TYPE = U
NORAD_CAT_ID   = 68133
ELEMENT_SET_NO = 999
REV_AT_EPOCH   = 297
BSTAR          = .48670636E-4
MEAN_MOTION_DOT = -.89E-6
MEAN_MOTION_DDOT = 0

CCSDS_OMM_VERS = 2.0
CREATION_DATE  = 
ORIGINATOR     = 

OBJECT_NAME    = GUOWANG GROUP 20 OBJECT F
OBJECT_ID      = 2026-047F
CENTER_NAME    = EARTH
REF_FRAME      = TEME
TIME_SYSTEM    = UTC
MEAN_ELEMENT_THEORY = SGP/SGP4

EPOCH          = 2026-04-02T13:36:24.060096
MEAN_MOTION    = 13.87190720
ECCENTRICITY   = .0000629
INCLINATION    = 50.0093
RA_OF_ASC_NODE = 333.7419
ARG_OF_PERICENTER = 256.4099
MEAN_ANOMALY   = 103.6728

EPHEMERIS_TYPE = 0
CLASSIFICATION_TYPE = U
NORAD_CAT_ID   = 68134
ELEMENT_SET_NO = 999
REV_AT_EPOCH   = 290
BSTAR          = .95092278E-4
MEAN_MOTION_DOT = -.33E-6
MEAN_MOTION_DDOT = 0

CCSDS_OMM_VERS = 2.0
CREATION_DATE  = 
ORIGINATOR     = 

OBJECT_NAME    = GUOWANG GROUP 20 OBJECT G
OBJECT_ID      = 2026-047G
CENTER_NAME    = EARTH
REF_FRAME      = TEME
TIME_SYSTEM    = UTC
MEAN_ELEMENT_THEORY = SGP/SGP4

EPOCH          = 2026-04-03T22:33:32.215680
MEAN_MOTION    = 13.84351793
ECCENTRICITY   = .00052059
INCLINATION    = 50.0089
RA_OF_ASC_NODE = 328.3860
ARG_OF_PERICENTER = 347.4651
MEAN_ANOMALY   = 12.6115

EPHEMERIS_TYPE = 0
CLASSIFICATION_TYPE = U
NORAD_CAT_ID   = 68135
ELEMENT_SET_NO = 999
REV_AT_EPOCH   = 310
BSTAR          = .15438122E-3
MEAN_MOTION_DOT = .3E-6
MEAN_MOTION_DDOT = 0

